GOES 1 [-]              
1 08366U 75100A   16137.22627219  .00000005  00000-0  00000+0 0  9999
2 08366  12.6362 323.1887 0004221 241.0568 345.3849  1.00294312148261
GOES 2 [-]              
1 10061U 77048A   16138.43925442  .00000060  00000-0  00000+0 0  9991
2 10061  13.7696 332.0041 0014318 303.3538 338.6333  0.99396404 86903
GOES 3 [P]              
1 10953U 78062A   16134.61493277 -.00000149  00000-0  00000+0 0  9999
2 10953  13.8719 335.5198 0003277 172.0357 203.7390  1.00276313 91969
GOES 4 [-]              
1 11964U 80074A   16138.11952106  .00000057  00000-0  00000+0 0  9995
2 11964  14.5946 339.2433 0030817   3.1196 346.0798  0.99227946 91081
GOES 5 [-]              
1 12472U 81049A   16137.41168699  .00000030  00000-0  00000+0 0  9992
2 12472  14.6230 349.3590 0004446 210.4929  50.5553  1.00317935 86020
GOES 6 [-]              
1 14050U 83041A   16138.50882696  .00000024  00000-0  00000+0 0  9994
2 14050  14.7723 354.1804 0003453 167.5692 126.6391  1.00300801179123
GOES 7 [-]              
1 17561U 87022A   16134.21043050 -.00000137  00000-0  00000+0 0  9990
2 17561  15.0855  10.0881 0002559 285.4510   7.9816  0.99908111 90143
GOES 8 [-]              
1 23051U 94022A   16138.25761711 -.00000283  00000-0  00000+0 0  9990
2 23051  10.8690  42.7754 0005677 224.5593 201.7497  0.98907481 87697
GOES 9 [-]              
1 23581U 95025A   16138.48081969 -.00000255  00000-0  00000+0 0  9996
2 23581  10.3771  41.9974 0004115  72.3801  99.2420  0.98803118 76362
GOES 10 [-]             
1 24786U 97019A   16137.68373464 -.00000295  00000-0  00000-0 0  9999
2 24786   8.7043  46.3603 0029623 148.5906  58.9065  0.99125199 69551
GOES 11 [-]             
1 26352U 00022A   16138.46958705 -.00000087  00000-0  00000+0 0  9990
2 26352   4.1553  78.1556 0002903 101.0280 146.4982  0.99041094 58526
GOES 12 [-]             
1 26871U 01031A   16138.40566204 -.00000289  00000-0  00000+0 0  9994
2 26871   5.6183  63.1203 0007859 222.3957 250.7899  0.99141343 54220
GOES 13 [+]             
1 29155U 06018A   16137.55668455 -.00000261  00000-0  00000-0 0  9999
2 29155   0.2576 269.5453 0005982 161.7645 288.7572  1.00280359  6454
GOES 14 [S]             
1 35491U 09033A   16137.63878808 -.00000102  00000-0  00000+0 0  9996
2 35491   0.1876 101.0664 0002991 103.1892 155.7317  1.00271354 25222
GOES 15 [+]             
1 36411U 10008A   16137.72244105  .00000075  00000-0  00000+0 0  9998
2 36411   0.1228 104.6604 0002021 320.3521 295.0103  1.00282567 22759
